EARTHCARE               
1 59908U 24101A   24191.11079902  .00014524  00000+0  22001-3 0  9998
2 59908  96.9832 318.3447 0004216  44.5309 315.6284 15.54734509  6398
